ORBCOMM FM06            
1 25118U 97084G   26169.12787937  .00000964  00000+0  29862-3 0  9991
2 25118  45.0146  48.1835 0001088 335.1889 186.5634 14.47564843494525
ORBCOMM FM04            
1 25159U 98007C   26168.95185236  .00000649  00000+0  26760-3 0  9990
2 25159 107.9626 170.9931 0041366 323.4493  36.3827 14.35742552476704
ORBCOMM FM19            
1 25415U 98046C   26167.96377247  .00000555  00000+0  22169-3 0  9998
2 25415  44.9931 244.6235 0004562 280.6774 249.5203 14.39495243456741
ORBCOMM FM20            
1 25416U 98046D   26169.26342018  .00000387  00000+0  17309-3 0  9995
2 25416  44.9934 246.3804 0002328 253.7197 106.3395 14.38067516456945
ORBCOMM FM27            
1 25481U 98053G   26168.88170934  .00000708  00000+0  27222-3 0  9990
2 25481  45.0044 332.0538 0001079 195.6923 164.3893 14.39142426450330
ORBCOMM FM32            
1 25982U 99065C   26169.05510297  .00000311  00000+0  15121-3 0  9995
2 25982  45.0136 169.1317 0004418  39.8481 320.2691 14.37130580387211
ORBCOMM FM109           
1 40086U 14040A   26169.12561807  .00000319  00000+0  10382-3 0  9990
2 40086  47.0031  87.0492 0001916 248.8002 111.2679 14.58845759634484
ORBCOMM FM110           
1 41182U 15081D   26168.92574824  .00000540  00000+0  15044-3 0  9990
2 41182  47.0033 357.9511 0002494  80.4208 279.6960 14.58881675557736
ORBCOMM FM118           
1 41183U 15081E   26168.68605499  .00001999  00000+0  45885-3 0  9992
2 41183  47.0029 359.4159 0002673  33.4979 326.6076 14.58881230557805
ORBCOMM FM112           
1 41184U 15081F   26169.30697124  .00000434  00000+0  12796-3 0  9997
2 41184  46.9989 264.9521 0003794 222.4136 137.6457 14.58905836559110
ORBCOMM FM113           
1 41185U 15081G   26167.98238227  .00000280  00000+0  95480-4 0  9996
2 41185  47.0010 271.5920 0002254 223.6251 136.4456 14.58858314558906
ORBCOMM FM108           
1 41187U 15081J   26169.04056137  .00000258  00000+0  90814-4 0  9996
2 41187  47.0030 178.1625 0002987 224.9174 135.1471 14.58870752560204
ORBCOMM FM117           
1 41188U 15081K   26169.07456361  .00000188  00000+0  76125-4 0  9994
2 41188  46.9995 176.6350 0003503 228.4581 131.6005 14.58865755560253
ORBCOMM FM116           
1 41189U 15081L   26167.75377462  .00000488  00000+0  13931-3 0  9990
2 41189  47.0020 272.6710 0000581  62.4502 297.6443 14.58882755558877
